{"type": "FeatureCollection", "features": [ {"type": "Feature", "properties": {"norad_id": 38552, "name": "METEOSAT-10 (MSG-3)", "group": "weather", "lat": -1.3686163435865575, "lon": 42.63409599844929, "alt_km": 35786.42329566464, "timestamp": "2025-12-09T21:34:11.050002+00:00", "meta": {"OBJECT_NAME": "METEOSAT-10 (MSG-3)", "OBJECT_ID": "2012-035B", "EPOCH": "2025-12-09T01:35:17.617632", "MEAN_MOTION": 1.0027383, "ECCENTRICITY": 8.734e-05, "INCLINATION": 4.2204, "RA_OF_ASC_NODE": 61.7307, "ARG_OF_PERICENTER": 239.048, "MEAN_ANOMALY": 161.2485, "EPHEMERIS_TYPE": 0, "CLASSIFICATION_TYPE": "U", "NORAD_CAT_ID": 38552, "ELEMENT_SET_NO": 999, "REV_AT_EPOCH": 4895, "BSTAR": 0, "MEAN_MOTION_DOT": -5e-08, "MEAN_MOTION_DDOT": 0}, "tle": {"line1": "1 38552U 12035B   25343.06617613 -.00000005  00000+0  00000+0 0  9995", "line2": "2 38552   4.2204  61.7307 0000873 239.0480 161.2485  1.00273830 48952"}}, "geometry": {"type": "Point", "coordinates": [42.63409599844929, -1.3686163435865575]}}, {"type": "Feature", "properties": {"norad_id": 38771, "name": "METOP-B", "group": "weather", "lat": -41.0848515075825, "lon": 41.55988559281553, "alt_km": 829.0754721686444, "timestamp": "2025-12-09T21:34:11.050014+00:00", "meta": {"OBJECT_NAME": "METOP-B", "OBJECT_ID": "2012-049A", "EPOCH": "2025-12-09T15:00:28.079136", "MEAN_MOTION": 14.21406802, "ECCENTRICITY": 0.00027807, "INCLINATION": 98.6803, "RA_OF_ASC_NODE": 33.6368, "ARG_OF_PERICENTER": 150.8443, "MEAN_ANOMALY": 209.289, "EPHEMERIS_TYPE": 0, "CLASSIFICATION_TYPE": "U", "NORAD_CAT_ID": 38771, "ELEMENT_SET_NO": 999, "REV_AT_EPOCH": 68633, "BSTAR": 0.00014090798, "MEAN_MOTION_DOT": 2.64e-06, "MEAN_MOTION_DDOT": 0}, "tle": {"line1": "1 38771U 12049A   25343.62532499  .00000264  00000+0  14091-3 0  9998", "line2": "2 38771  98.6803  33.6368 0002780 150.8443 209.2890 14.21406802686337"}}, "geometry": {"type": "Point", "coordinates": [41.55988559281553, -41.0848515075825]}}, {"type": "Feature", "properties": {"norad_id": 39216, "name": "INSAT-3D", "group": "weather", "lat": 1.4331713410701044, "lon": 171.95340756089178, "alt_km": 35784.43266715117, "timestamp": "2025-12-09T21:34:11.050026+00:00", "meta": {"OBJECT_NAME": "INSAT-3D", "OBJECT_ID": "2013-038B", "EPOCH": "2025-12-09T14:14:51.431712", "MEAN_MOTION": 1.00271179, "ECCENTRICITY": 0.00016371, "INCLINATION": 1.437, "RA_OF_ASC_NODE": 85.0215, "ARG_OF_PERICENTER": 162.82, "MEAN_ANOMALY": 174.0005, "EPHEMERIS_TYPE": 0, "CLASSIFICATION_TYPE": "U", "NORAD_CAT_ID": 39216, "ELEMENT_SET_NO": 999, "REV_AT_EPOCH": 4517, "BSTAR": 0, "MEAN_MOTION_DOT": -3.36e-06, "MEAN_MOTION_DDOT": 0}, "tle": {"line1": "1 39216U 13038B   25343.59365083 -.00000336  00000+0  00000+0 0  9993", "line2": "2 39216   1.4370  85.0215 0001637 162.8200 174.0005  1.00271179 45177"}}, "geometry": {"type": "Point", "coordinates": [171.95340756089178, 1.4331713410701044]}}, {"type": "Feature", "properties": {"norad_id": 39260, "name": "FENGYUN 3C", "group": "weather", "lat": -79.60672026860652, "lon": 87.32540206549541, "alt_km": 842.0947127142899, "timestamp": "2025-12-09T21:34:11.050037+00:00", "meta": {"OBJECT_NAME": "FENGYUN 3C", "OBJECT_ID": "2013-052A", "EPOCH": "2025-12-09T13:32:31.045344", "MEAN_MOTION": 14.15694846, "ECCENTRICITY": 0.00141045, "INCLINATION": 98.476, "RA_OF_ASC_NODE": 321.3987, "ARG_OF_PERICENTER": 205.4618, "MEAN_ANOMALY": 154.5863, "EPHEMERIS_TYPE": 0, "CLASSIFICATION_TYPE": "U", "NORAD_CAT_ID": 39260, "ELEMENT_SET_NO": 999, "REV_AT_EPOCH": 63173, "BSTAR": 0.00013292321, "MEAN_MOTION_DOT": 2.2e-06, "MEAN_MOTION_DDOT": 0}, "tle": {"line1": "1 39260U 13052A   25343.56424821  .00000220  00000+0  13292-3 0  9993", "line2": "2 39260  98.4760 321.3987 0014104 205.4618 154.5863 14.15694846631735"}}, "geometry": {"type": "Point", "coordinates": [87.32540206549541, -79.60672026860652]}}, {"type": "Feature", "properties": {"norad_id": 40069, "name": "METEOR-M 2", "group": "weather", "lat": -7.038341797689436, "lon": 140.53503538625395, "alt_km": 821.5345188552665, "timestamp": "2025-12-09T21:34:11.050048+00:00", "meta": {"OBJECT_NAME": "METEOR-M 2", "OBJECT_ID": "2014-037A", "EPOCH": "2025-12-09T15:37:26.560704", "MEAN_MOTION": 14.21383556, "ECCENTRICITY": 0.00048438, "INCLINATION": 98.49, "RA_OF_ASC_NODE": 321.3535, "ARG_OF_PERICENTER": 220.3545, "MEAN_ANOMALY": 139.7274, "EPHEMERIS_TYPE": 0, "CLASSIFICATION_TYPE": "U", "NORAD_CAT_ID": 40069, "ELEMENT_SET_NO": 999, "REV_AT_EPOCH": 59239, "BSTAR": 6.1953091e-05, "MEAN_MOTION_DOT": 9.3e-07, "MEAN_MOTION_DDOT": 0}, "tle": {"line1": "1 40069U 14037A   25343.65100186  .00000093  00000+0  61953-4 0  9997", "line2": "2 40069  98.4900 321.3535 0004843 220.3545 139.7274 14.21383556592392"}}, "geometry": {"type": "Point", "coordinates": [140.53503538625395, -7.038341797689436]}}, {"type": "Feature", "properties": {"norad_id": 40267, "name": "HIMAWARI-8", "group": "weather", "lat": -0.020820394474066913, "lon": -176.92701293569021, "alt_km": 35788.61417679262, "timestamp": "2025-12-09T21:34:11.050060+00:00", "meta": {"OBJECT_NAME": "HIMAWARI-8", "OBJECT_ID": "2014-060A", "EPOCH": "2025-12-09T12:31:51.169728", "MEAN_MOTION": 1.00270627, "ECCENTRICITY": 0.00012561, "INCLINATION": 0.0332, "RA_OF_ASC_NODE": 216.1327, "ARG_OF_PERICENTER": 81.2456, "MEAN_ANOMALY": 109.7586, "EPHEMERIS_TYPE": 0, "CLASSIFICATION_TYPE": "U", "NORAD_CAT_ID": 40267, "ELEMENT_SET_NO": 999, "REV_AT_EPOCH": 4085, "BSTAR": 0, "MEAN_MOTION_DOT": -2.73e-06, "MEAN_MOTION_DDOT": 0}, "tle": {"line1": "1 40267U 14060A   25343.52212002 -.00000273  00000+0  00000+0 0  9992", "line2": "2 40267   0.0332 216.1327 0001256  81.2456 109.7586  1.00270627 40859"}}, "geometry": {"type": "Point", "coordinates": [-176.92701293569021, -0.020820394474066913]}}, {"type": "Feature", "properties": {"norad_id": 40367, "name": "FENGYUN 2G", "group": "weather", "lat": 4.7557372151639346, "lon": 141.92059455456115, "alt_km": 35795.89045142366, "timestamp": "2025-12-09T21:34:11.050072+00:00", "meta": {"OBJECT_NAME": "FENGYUN 2G", "OBJECT_ID": "2014-090A", "EPOCH": "2025-12-08T17:30:10.330272", "MEAN_MOTION": 1.00265504, "ECCENTRICITY": 0.0003085, "INCLINATION": 5.1581, "RA_OF_ASC_NODE": 75.1439, "ARG_OF_PERICENTER": 197.6958, "MEAN_ANOMALY": 167.0613, "EPHEMERIS_TYPE": 0, "CLASSIFICATION_TYPE": "U", "NORAD_CAT_ID": 40367, "ELEMENT_SET_NO": 999, "REV_AT_EPOCH": 4009, "BSTAR": 0, "MEAN_MOTION_DOT": -3e-06, "MEAN_MOTION_DDOT": 0}, "tle": {"line1": "1 40367U 14090A   25342.72928623 -.00000300  00000+0  00000+0 0  9991", "line2": "2 40367   5.1581  75.1439 0003085 197.6958 167.0613  1.00265504 40092"}}, "geometry": {"type": "Point", "coordinates": [141.92059455456115, 4.7557372151639346]}}, {"type": "Feature", "properties": {"norad_id": 40732, "name": "METEOSAT-11 (MSG-4)", "group": "weather", "lat": -0.9259243870955123, "lon": 51.77964288723033, "alt_km": 35790.88548273465, "timestamp": "2025-12-09T21:34:11.050084+00:00", "meta": {"OBJECT_NAME": "METEOSAT-11 (MSG-4)", "OBJECT_ID": "2015-034A", "EPOCH": "2025-12-09T05:03:28.023264", "MEAN_MOTION": 1.00266394, "ECCENTRICITY": 9.7e-05, "INCLINATION": 2.7265, "RA_OF_ASC_NODE": 72.0117, "ARG_OF_PERICENTER": 121.8112, "MEAN_ANOMALY": 329.5993, "EPHEMERIS_TYPE": 0, "CLASSIFICATION_TYPE": "U", "NORAD_CAT_ID": 40732, "ELEMENT_SET_NO": 999, "REV_AT_EPOCH": 531, "BSTAR": 0, "MEAN_MOTION_DOT": 6.3e-07, "MEAN_MOTION_DDOT": 0}, "tle": {"line1": "1 40732U 15034A   25343.21074101  .00000063  00000+0  00000+0 0  9999", "line2": "2 40732   2.7265  72.0117 0000970 121.8112 329.5993  1.00266394  5310"}}, "geometry": {"type": "Point", "coordinates": [51.77964288723033, -0.9259243870955123]}}, {"type": "Feature", "properties": {"norad_id": 41105, "name": "ELEKTRO-L 2", "group": "weather", "lat": -4.374217195975453, "lon": 28.13364571175838, "alt_km": 35793.82292497941, "timestamp": "2025-12-09T21:34:11.050096+00:00", "meta": {"OBJECT_NAME": "ELEKTRO-L 2", "OBJECT_ID": "2015-074A", "EPOCH": "2025-12-09T01:31:10.511904", "MEAN_MOTION": 1.00271905, "ECCENTRICITY": 0.00038363, "INCLINATION": 6.2161, "RA_OF_ASC_NODE": 72.8685, "ARG_OF_PERICENTER": 198.9202, "MEAN_ANOMALY": 174.5582, "EPHEMERIS_TYPE": 0, "CLASSIFICATION_TYPE": "U", "NORAD_CAT_ID": 41105, "ELEMENT_SET_NO": 999, "REV_AT_EPOCH": 3660, "BSTAR": 0, "MEAN_MOTION_DOT": -1.16e-06, "MEAN_MOTION_DDOT": 0}, "tle": {"line1": "1 41105U 15074A   25343.06331611 -.00000116  00000+0  00000+0 0  9993", "line2": "2 41105   6.2161  72.8685 0003836 198.9202 174.5582  1.00271905 36608"}}, "geometry": {"type": "Point", "coordinates": [28.13364571175838, -4.374217195975453]}}, {"type": "Feature", "properties": {"norad_id": 41752, "name": "INSAT-3DR", "group": "weather", "lat": 0.0559215311829946, "lon": 116.35679200026023, "alt_km": 35841.540500974224, "timestamp": "2025-12-09T21:34:11.050108+00:00", "meta": {"OBJECT_NAME": "INSAT-3DR", "OBJECT_ID": "2016-054A", "EPOCH": "2025-12-09T13:55:35.649408", "MEAN_MOTION": 1.00270371, "ECCENTRICITY": 0.00145029, "INCLINATION": 0.0843, "RA_OF_ASC_NODE": 86.6157, "ARG_OF_PERICENTER": 183.633, "MEAN_ANOMALY": 91.2251, "EPHEMERIS_TYPE": 0, "CLASSIFICATION_TYPE": "U", "NORAD_CAT_ID": 41752, "ELEMENT_SET_NO": 999, "REV_AT_EPOCH": 3391, "BSTAR": 0, "MEAN_MOTION_DOT": -7.4e-07, "MEAN_MOTION_DDOT": 0}, "tle": {"line1": "1 41752U 16054A   25343.58027372 -.00000074  00000+0  00000+0 0  9996", "line2": "2 41752   0.0843  86.6157 0014502 183.6330  91.2251  1.00270371 33912"}}, "geometry": {"type": "Point", "coordinates": [116.35679200026023, 0.0559215311829946]}}]}